{
  "type": "FeatureCollection",
  "features": [
    {
      "type": "Feature",
      "properties": {
        "norad_id": 35824,
        "name": "COSMOS 2251 DEB",
        "group": "cosmos-2251-debris",
        "lat": 53.69469194487943,
        "lon": -165.97898945344446,
        "alt_km": 747.172667839197,
        "timestamp": "2025-12-19T10:50:01.598344+00:00",
        "meta_object_name": "COSMOS 2251 DEB",
        "meta_object_id": "1993-036ASW",
        "meta_epoch": "2025-12-17T20:12:45.612576",
        "meta_mean_motion": 13.88437103,
        "meta_eccentricity": 0.02481819,
        "meta_inclination": 73.8461,
        "meta_ra_of_asc_node": 40.0198,
        "meta_arg_of_pericenter": 125.2294,
        "meta_mean_anomaly": 237.234,
        "meta_ephemeris_type": 0,
        "meta_classification_type": "U",
        "meta_norad_cat_id": 35824,
        "meta_element_set_no": 999,
        "meta_rev_at_epoch": 84298,
        "meta_bstar": 0.00079958432,
        "meta_mean_motion_dot": 1.204e-05,
        "meta_mean_motion_ddot": 0,
        "tle_line1": "1 35824U 93036ASW 25351.84219459  .00001204  00000+0  79958-3 0  9998",
        "tle_line2": "2 35824  73.8461  40.0198 0248181 125.2294 237.2340 13.88437103842984"
      },
      "geometry": {
        "type": "Point",
        "coordinates": [
          -165.97898945344446,
          53.69469194487943
        ]
      }
    },
    {
      "type": "Feature",
      "properties": {
        "norad_id": 35825,
        "name": "COSMOS 2251 DEB",
        "group": "cosmos-2251-debris",
        "lat": 67.53947504394947,
        "lon": 175.15081953897078,
        "alt_km": 1216.346902216952,
        "timestamp": "2025-12-19T10:50:01.598354+00:00",
        "meta_object_name": "COSMOS 2251 DEB",
        "meta_object_id": "1993-036ASX",
        "meta_epoch": "2025-12-14T02:36:29.406816",
        "meta_mean_motion": 13.70963524,
        "meta_eccentricity": 0.03526119,
        "meta_inclination": 74.113,
        "meta_ra_of_asc_node": 140.3902,
        "meta_arg_of_pericenter": 235.9093,
        "meta_mean_anomaly": 120.8102,
        "meta_ephemeris_type": 0,
        "meta_classification_type": "U",
        "meta_norad_cat_id": 35825,
        "meta_element_set_no": 999,
        "meta_rev_at_epoch": 82527,
        "meta_bstar": 0.0023333684,
        "meta_mean_motion_dot": 3.214e-05,
        "meta_mean_motion_ddot": 0,
        "tle_line1": "1 35825U 93036ASX 25348.10867369  .00003214  00000+0  23334-2 0  9992",
        "tle_line2": "2 35825  74.1130 140.3902 0352611 235.9093 120.8102 13.70963524825277"
      },
      "geometry": {
        "type": "Point",
        "coordinates": [
          175.15081953897078,
          67.53947504394947
        ]
      }
    },
    {
      "type": "Feature",
      "properties": {
        "norad_id": 35829,
        "name": "COSMOS 2251 DEB",
        "group": "cosmos-2251-debris",
        "lat": -15.564073758955342,
        "lon": 81.0787503693873,
        "alt_km": 648.5862489452475,
        "timestamp": "2025-12-19T10:50:01.598364+00:00",
        "meta_object_name": "COSMOS 2251 DEB",
        "meta_object_id": "1993-036ATB",
        "meta_epoch": "2025-12-17T00:21:46.598688",
        "meta_mean_motion": 14.76400839,
        "meta_eccentricity": 0.0005573,
        "meta_inclination": 74.0249,
        "meta_ra_of_asc_node": 90.4281,
        "meta_arg_of_pericenter": 146.0686,
        "meta_mean_anomaly": 214.0846,
        "meta_ephemeris_type": 0,
        "meta_classification_type": "U",
        "meta_norad_cat_id": 35829,
        "meta_element_set_no": 999,
        "meta_rev_at_epoch": 87838,
        "meta_bstar": 0.001494418,
        "meta_mean_motion_dot": 0.00010373,
        "meta_mean_motion_ddot": 0,
        "tle_line1": "1 35829U 93036ATB 25351.01512267  .00010373  00000+0  14944-2 0  9995",
        "tle_line2": "2 35829  74.0249  90.4281 0005573 146.0686 214.0846 14.76400839878381"
      },
      "geometry": {
        "type": "Point",
        "coordinates": [
          81.0787503693873,
          -15.564073758955342
        ]
      }
    },
    {
      "type": "Feature",
      "properties": {
        "norad_id": 35830,
        "name": "COSMOS 2251 DEB",
        "group": "cosmos-2251-debris",
        "lat": 70.34312487199445,
        "lon": 20.06697870030798,
        "alt_km": 847.4506355060976,
        "timestamp": "2025-12-19T10:50:01.598374+00:00",
        "meta_object_name": "COSMOS 2251 DEB",
        "meta_object_id": "1993-036ATC",
        "meta_epoch": "2025-12-17T01:01:27.071616",
        "meta_mean_motion": 14.24015017,
        "meta_eccentricity": 0.01218819,
        "meta_inclination": 73.8614,
        "meta_ra_of_asc_node": 258.6041,
        "meta_arg_of_pericenter": 226.0627,
        "meta_mean_anomaly": 133.0413,
        "meta_ephemeris_type": 0,
        "meta_classification_type": "U",
        "meta_norad_cat_id": 35830,
        "meta_element_set_no": 999,
        "meta_rev_at_epoch": 61325,
        "meta_bstar": 0.00082142349,
        "meta_mean_motion_dot": 2.01e-05,
        "meta_mean_motion_ddot": 0,
        "tle_line1": "1 35830U 93036ATC 25351.04267444  .00002010  00000+0  82142-3 0  9999",
        "tle_line2": "2 35830  73.8614 258.6041 0121881 226.0627 133.0413 14.24015017613259"
      },
      "geometry": {
        "type": "Point",
        "coordinates": [
          20.06697870030798,
          70.34312487199445
        ]
      }
    },
    {
      "type": "Feature",
      "properties": {
        "norad_id": 35834,
        "name": "COSMOS 2251 DEB",
        "group": "cosmos-2251-debris",
        "lat": 32.16147300190381,
        "lon": -56.961528359750154,
        "alt_km": 803.8356737034128,
        "timestamp": "2025-12-19T10:50:01.598384+00:00",
        "meta_object_name": "COSMOS 2251 DEB",
        "meta_object_id": "1993-036ATG",
        "meta_epoch": "2025-12-18T21:21:21.733632",
        "meta_mean_motion": 14.12989535,
        "meta_eccentricity": 0.01093187,
        "meta_inclination": 73.9334,
        "meta_ra_of_asc_node": 293.5971,
        "meta_arg_of_pericenter": 92.3571,
        "meta_mean_anomaly": 326.954,
        "meta_ephemeris_type": 0,
        "meta_classification_type": "U",
        "meta_norad_cat_id": 35834,
        "meta_element_set_no": 999,
        "meta_rev_at_epoch": 66350,
        "meta_bstar": 0.00038881457,
        "meta_mean_motion_dot": 7.43e-06,
        "meta_mean_motion_ddot": 0,
        "tle_line1": "1 35834U 93036ATG 25352.88983488  .00000743  00000+0  38881-3 0  9991",
        "tle_line2": "2 35834  73.9334 293.5971 0109318  92.3571 326.9540 14.12989535663505"
      },
      "geometry": {
        "type": "Point",
        "coordinates": [
          -56.961528359750154,
          32.16147300190381
        ]
      }
    },
    {
      "type": "Feature",
      "properties": {
        "norad_id": 35835,
        "name": "COSMOS 2251 DEB",
        "group": "cosmos-2251-debris",
        "lat": -37.48230204512947,
        "lon": -115.50250645915365,
        "alt_km": 903.5426313147518,
        "timestamp": "2025-12-19T10:50:01.598394+00:00",
        "meta_object_name": "COSMOS 2251 DEB",
        "meta_object_id": "1993-036ATH",
        "meta_epoch": "2025-12-18T10:42:41.881248",
        "meta_mean_motion": 13.82903566,
        "meta_eccentricity": 0.02908362,
        "meta_inclination": 74.0638,
        "meta_ra_of_asc_node": 258.8428,
        "meta_arg_of_pericenter": 39.1295,
        "meta_mean_anomaly": 323.047,
        "meta_ephemeris_type": 0,
        "meta_classification_type": "U",
        "meta_norad_cat_id": 35835,
        "meta_element_set_no": 999,
        "meta_rev_at_epoch": 61778,
        "meta_bstar": 0.0012842732,
        "meta_mean_motion_dot": 1.917e-05,
        "meta_mean_motion_ddot": 0,
        "tle_line1": "1 35835U 93036ATH 25352.44631807  .00001917  00000+0  12843-2 0  9992",
        "tle_line2": "2 35835  74.0638 258.8428 0290836  39.1295 323.0470 13.82903566617789"
      },
      "geometry": {
        "type": "Point",
        "coordinates": [
          -115.50250645915365,
          -37.48230204512947
        ]
      }
    },
    {
      "type": "Feature",
      "properties": {
        "norad_id": 35836,
        "name": "COSMOS 2251 DEB",
        "group": "cosmos-2251-debris",
        "lat": 28.820005812826754,
        "lon": -29.16745848912395,
        "alt_km": 649.4604259446633,
        "timestamp": "2025-12-19T10:50:01.598404+00:00",
        "meta_object_name": "COSMOS 2251 DEB",
        "meta_object_id": "1993-036ATJ",
        "meta_epoch": "2025-12-18T21:05:47.087808",
        "meta_mean_motion": 14.71102537,
        "meta_eccentricity": 0.00237596,
        "meta_inclination": 74.0304,
        "meta_ra_of_asc_node": 161.0094,
        "meta_arg_of_pericenter": 218.7723,
        "meta_mean_anomaly": 141.1744,
        "meta_ephemeris_type": 0,
        "meta_classification_type": "U",
        "meta_norad_cat_id": 35836,
        "meta_element_set_no": 999,
        "meta_rev_at_epoch": 63610,
        "meta_bstar": 0.0015946851,
        "meta_mean_motion_dot": 9.832e-05,
        "meta_mean_motion_ddot": 0,
        "tle_line1": "1 35836U 93036ATJ 25352.87901722  .00009832  00000+0  15947-2 0  9998",
        "tle_line2": "2 35836  74.0304 161.0094 0023759 218.7723 141.1744 14.71102537636101"
      },
      "geometry": {
        "type": "Point",
        "coordinates": [
          -29.16745848912395,
          28.820005812826754
        ]
      }
    }
  ]
}